MEAN_MOTION;ECCENTRICITY;INCLINATION;RA_OF_ASC_NODE;ARG_OF_PERICENTER;MEAN_ANOMALY;BSTAR;MEAN_MOTION_DOT;MEAN_MOTION_DDOT;TYPE
12.62267868;3.6E-6;52.0066;31.1801;319.3998;40.6866;-6.293E-6;-1.05E-6;0;Globalstar
12.62267867;3.5E-6;52.0066;30.939;321.8084;38.278;-1.3833E-5;-1.06E-6;0;Globalstar
12.62267875;5.6E-6;52.0067;28.2877;346.1091;13.9774;-1.0128E-5;-1.06E-6;0;Globalstar
12.62267877;6.1E-6;52.0068;27.3235;351.193;8.8935;-1.3987E-5;-1.06E-6;0;Globalstar
12.62267882;6.9E-6;52.0068;26.6004;352.8964;7.1902;-1.603E-5;-1.07E-6;0;Globalstar
12.62267877;8.6E-6;52.0069;24.1901;0.6574;359.4292;-1.8235E-5;-1.07E-6;0;Globalstar
12.62267885;9.0E-6;52.0069;23.708;1.7887;358.298;-1.5885E-5;-1.07E-6;0;Globalstar
12.62267892;1.01E-5;52.0069;22.2618;3.0764;357.0103;-1.3262E-5;-1.06E-6;0;Globalstar
12.62267894;1.14E-5;52.0069;21.0566;4.3806;355.7062;-1.7426E-5;-1.07E-6;0;Globalstar
12.62267899;1.16E-5;52.0069;20.8156;5.1278;354.959;-1.3556E-5;-1.06E-6;0;Globalstar
12.6226793;1.43E-5;52.007;17.9232;8.8673;351.2197;1.2617E-5;-1.02E-6;0;Globalstar
12.6226792;1.59E-5;52.007;15.7538;13.4983;346.5888;1.8909E-6;-1.03E-6;0;Globalstar
12.62267973;1.77E-5;52.007;14.7897;14.4583;345.6289;5.1084E-5;-9.5E-7;0;Globalstar
12.62267982;1.88E-5;52.0071;13.3435;14.6532;345.434;6.3653E-5;-9.2E-7;0;Globalstar
12.62267904;2.08E-5;52.0071;10.21;20.1619;339.9256;3.4841E-5;-9.8E-7;0;Globalstar
12.62267903;2.09E-5;52.0072;9.7279;20.5607;339.5268;2.3254E-5;-1.0E-6;0;Globalstar
12.62267924;2.52E-5;52.0072;6.5945;24.7558;335.3321;4.7594E-5;-9.5E-7;0;Globalstar
12.62267959;2.57E-5;52.0072;6.1124;25.4496;334.6383;7.8324E-5;-9.0E-7;0;Globalstar
12.62267967;2.6E-5;52.0072;5.8714;25.971;334.117;8.3881E-5;-8.9E-7;0;Globalstar
12.62268024;2.72E-5;52.0073;2.979;29.4304;330.6578;0.00011258;-8.4E-7;0;Globalstar
12.6226804;2.9E-5;52.0073;0.5686;31.4023;328.6861;9.4043E-5;-8.7E-7;0;Globalstar
12.62268047;3.07E-5;52.0073;359.3635;31.2143;328.8742;9.0194E-5;-8.8E-7;0;Globalstar
12.62268058;3.23E-5;52.0073;357.4353;32.7901;327.2986;7.8127E-5;-9.0E-7;0;Globalstar
12.62268067;3.34E-5;52.0072;355.7481;32.8867;327.202;7.3642E-5;-9.1E-7;0;Globalstar
12.62268078;3.41E-5;52.0072;354.543;34.0262;326.0627;6.7663E-5;-9.2E-7;0;Globalstar
12.62268087;3.41E-5;52.0071;352.6147;36.0542;324.0347;5.7038E-5;-9.4E-7;0;Globalstar
12.62268143;3.48E-5;52.007;351.8916;36.6562;323.4328;0.00010153;-8.6E-7;0;Globalstar
12.62268128;3.52E-5;52.007;351.4095;38.3171;321.7721;7.1214E-5;-9.1E-7;0;Globalstar
12.62268163;3.67E-5;52.007;349.7224;39.0183;321.071;9.3865E-5;-8.7E-7;0;Globalstar
12.62268173;3.71E-5;52.0069;348.5172;40.0879;320.0016;8.7907E-5;-8.8E-7;0;Globalstar
12.62268199;3.91E-5;52.0067;345.6248;42.9141;317.1756;9.356E-5;-8.7E-7;0;Globalstar
12.62268215;3.92E-5;52.0067;345.3838;43.1968;316.8929;0.0001143;-8.3E-7;0;Globalstar
12.6226824;4.11E-5;52.0066;342.4913;44.3426;315.7474;0.00012337;-8.2E-7;0;Globalstar
12.62268258;4.28E-5;52.0065;339.3578;45.6777;314.4125;0.00011554;-8.3E-7;0;Globalstar
12.62268266;4.36E-5;52.0064;338.6347;45.4612;314.6291;0.00013683;-7.9E-7;0;Globalstar
12.62268273;4.47E-5;52.0063;336.2243;46.8638;313.2266;0.00013217;-8.0E-7;0;Globalstar
12.62268292;4.6E-5;52.0062;333.5728;47.9016;312.189;0.00011222;-8.4E-7;0;Globalstar
12.622683;4.62E-5;52.0062;333.3318;48.3084;311.7822;0.00012334;-8.2E-7;0;Globalstar
12.62268354;4.79E-5;52.0061;330.4393;49.0565;311.0343;0.00014169;-7.8E-7;0;Globalstar
12.62268363;5.0E-5;52.0059;327.0647;51.3024;308.7888;0.00011366;-8.3E-7;0;Globalstar
12.62268363;5.0E-5;52.0059;327.0647;51.3024;308.7888;0.00011366;-8.3E-7;0;Globalstar
12.6226839;5.11E-5;52.0058;324.4132;52.7677;307.3236;8.6792E-5;-8.8E-7;0;Globalstar
12.62268405;5.18E-5;52.0057;323.6901;53.1446;306.9468;9.5617E-5;-8.7E-7;0;Globalstar
12.62268466;5.28E-5;52.0056;321.0386;54.132;305.9596;9.817E-5;-8.6E-7;0;Globalstar
12.62268484;5.34E-5;52.0056;320.5566;53.7078;306.3838;0.0001057;-8.5E-7;0;Globalstar
12.6226852;5.39E-5;52.0054;318.3871;55.2092;304.8825;9.5931E-5;-8.7E-7;0;Globalstar
12.62268516;5.54E-5;52.0053;315.4945;56.4053;303.6867;6.4151E-5;-9.2E-7;0;Globalstar
12.62268502;5.57E-5;52.0052;315.0124;56.6332;303.4588;6.2383E-5;-9.3E-7;0;Globalstar
12.62268498;5.6E-5;52.0052;314.7714;56.8833;303.2087;5.9473E-5;-9.3E-7;0;Globalstar
12.62268505;5.73E-5;52.005;310.6735;58.3881;301.7042;5.1455E-5;-9.5E-7;0;Globalstar
12.62268554;5.82E-5;52.0048;308.9861;58.7953;301.2971;9.3988E-5;-8.7E-7;0;Globalstar
12.62268593;5.86E-5;52.0047;307.0576;59.3568;300.7356;0.00012361;-8.2E-7;0;Globalstar
12.62268583;5.91E-5;52.0047;306.3344;59.5326;300.5599;0.00010894;-8.4E-7;0;Globalstar
12.62268595;6.0E-5;52.0045;302.9595;60.8061;299.2866;0.00012329;-8.2E-7;0;Globalstar
12.62268639;6.07E-5;52.0044;299.8257;61.8718;298.221;0.00013948;-7.9E-7;0;Globalstar
12.62268655;6.1E-5;52.0044;299.3436;61.5716;298.5213;0.00014313;-7.8E-7;0;Globalstar
12.62268658;6.17E-5;52.0044;296.9329;62.1299;297.963;0.00012613;-8.1E-7;0;Globalstar
12.62268656;6.26E-5;52.0043;294.7634;62.8954;297.1977;9.0834E-5;-8.7E-7;0;Globalstar
12.62268718;6.23E-5;52.0043;293.7993;64.964;295.1291;0.0001136;-8.3E-7;0;Globalstar
12.62268732;6.2E-5;52.0043;290.6656;67.2075;292.8857;6.1323E-5;-9.3E-7;0;Globalstar
12.6226867;6.24E-5;52.0043;288.2549;67.3557;292.7376;-2.2302E-5;-1.08E-6;0;Globalstar
12.62268679;6.31E-5;52.0042;285.8442;67.4104;292.683;-2.6918E-5;-1.09E-6;0;Globalstar
12.62268679;6.33E-5;52.0042;284.639;67.8363;292.2571;-3.5809E-5;-1.1E-6;0;Globalstar
12.62268685;6.35E-5;52.0042;282.7106;68.0826;292.0109;-4.3331E-5;-1.12E-6;0;Globalstar
12.62268722;6.34E-5;52.0041;281.5053;68.9201;291.1733;-1.6361E-5;-1.07E-6;0;Globalstar
12.62268714;6.27E-5;52.004;278.6126;70.0064;290.087;-1.2569E-5;-1.06E-6;0;Globalstar
12.62268697;6.41E-5;52.0041;278.3715;69.3862;290.7073;-1.812E-5;-1.07E-6;0;Globalstar
12.62268684;6.31E-5;52.004;275.9608;71.6755;288.418;-1.4209E-5;-1.06E-6;0;Globalstar
12.62268706;6.25E-5;52.004;274.0324;71.0932;289.0003;2.6024E-5;-9.9E-7;0;Globalstar
12.62268701;6.27E-5;52.004;273.3092;71.614;288.4795;2.1957E-5;-1.0E-6;0;Globalstar
12.62268679;6.28E-5;52.0041;272.8271;71.774;288.3195;1.7909E-5;-1.01E-6;0;Globalstar
12.62268679;6.28E-5;52.0041;271.6218;71.897;288.1965;1.8623E-5;-1.0E-6;0;Globalstar
12.62268683;6.24E-5;52.0041;270.1755;72.6999;287.3936;3.4465E-5;-9.8E-7;0;Globalstar
12.6226867;6.27E-5;52.0041;267.2828;73.4574;286.6362;4.3434E-5;-9.6E-7;0;Globalstar
12.6226868;6.38E-5;52.0041;266.8007;72.8267;287.267;6.8154E-5;-9.2E-7;0;Globalstar
12.62268703;6.22E-5;52.0042;263.4259;74.3023;285.7913;6.2201E-5;-9.3E-7;0;Globalstar
12.62268719;6.23E-5;52.0043;260.2923;74.8921;285.2014;4.8811E-5;-9.5E-7;0;Globalstar
12.62268726;6.23E-5;52.0043;260.0512;74.7928;285.3007;4.4874E-5;-9.6E-7;0;Globalstar
12.622687;5.97E-5;52.0047;257.159;75.8129;284.2804;-1.1714E-5;-1.06E-6;0;Globalstar
12.62268679;5.93E-5;52.0047;255.2305;77.2717;282.8216;-1.6259E-5;-1.07E-6;0;Globalstar
12.62268732;6.13E-5;52.0043;254.2661;76.9189;283.1746;-1.0561E-5;-1.06E-6;0;Globalstar
12.62268686;5.96E-5;52.0047;251.856;76.0246;284.0687;-1.5277E-5;-1.07E-6;0;Globalstar
12.62268678;6.08E-5;52.0044;248.7222;76.8915;283.202;-8.74E-5;-1.19E-6;0;Globalstar
12.62268674;6.01E-5;52.0044;245.8297;77.5694;282.524;-8.037E-5;-1.18E-6;0;Globalstar
12.62268719;5.76E-5;52.0048;243.1783;77.7158;282.3773;3.7442E-8;-1.04E-6;0;Globalstar
12.62268688;5.8E-5;52.0043;240.0447;78.8957;281.1975;-7.4333E-6;-1.05E-6;0;Globalstar
12.62268681;5.82E-5;52.0043;239.8036;78.7682;281.325;-1.0132E-6;-1.04E-6;0;Globalstar
12.62268718;5.8E-5;52.0043;239.0805;78.5105;281.5827;3.29E-5;-9.8E-7;0;Globalstar
12.62268722;5.73E-5;52.0043;236.188;78.6286;281.4645;7.8523E-5;-9.0E-7;0;Globalstar
12.62268772;5.63E-5;52.0043;233.0545;78.9721;281.1209;0.00013321;-8.0E-7;0;Globalstar
12.62268772;5.63E-5;52.0043;233.0545;78.9721;281.1209;0.00013321;-8.0E-7;0;Globalstar
12.62268779;5.53E-5;52.0043;230.162;78.8761;281.2168;0.00013874;-7.9E-7;0;Globalstar
12.62268809;5.44E-5;52.0043;228.7157;79.0697;281.0231;0.00014987;-7.7E-7;0;Globalstar
12.62268856;5.38E-5;52.0043;225.3412;79.3993;280.6934;0.00013474;-8.0E-7;0;Globalstar
12.62268856;5.41E-5;52.0043;224.3771;79.0821;281.0107;0.00012799;-8.1E-7;0;Globalstar
12.62268876;5.3E-5;52.0043;221.7257;79.0262;281.0664;8.6452E-5;-8.8E-7;0;Globalstar
12.622689;5.31E-5;52.0042;221.0026;78.8483;281.2443;8.6951E-5;-8.8E-7;0;Globalstar
12.62268897;5.31E-5;52.0042;218.5922;78.8867;281.2059;4.4271E-5;-9.6E-7;0;Globalstar
12.6226889;5.31E-5;52.0041;218.1102;78.5596;281.533;2.4185E-5;-9.9E-7;0;Globalstar
12.6226892;5.26E-5;52.004;215.6998;78.5299;281.5627;1.6723E-5;-1.01E-6;0;Globalstar
12.62268945;5.26E-5;52.004;214.9767;78.3113;281.7813;2.5089E-5;-9.9E-7;0;Globalstar
12.62268953;5.22E-5;52.0038;212.0842;77.8948;282.1978;1.4077E-5;-1.01E-6;0;Globalstar
12.62268999;5.16E-5;52.0037;209.1917;77.4472;282.6453;5.8598E-5;-9.3E-7;0;Globalstar
12.62268998;5.15E-5;52.0037;208.9507;77.3699;282.7225;5.1877E-5;-9.4E-7;0;Globalstar
12.62269018;5.1E-5;52.0035;206.0582;76.9553;283.1371;8.639E-5;-8.8E-7;0;Globalstar
12.62269051;5.07E-5;52.0034;202.9246;76.404;283.6883;0.00013543;-8.0E-7;0;Globalstar
12.62269094;5.04E-5;52.0032;200.032;75.9942;284.098;0.00018264;-7.1E-7;0;Globalstar
12.62269108;5.0E-5;52.0032;198.5857;75.7967;284.2955;0.00019024;-7.0E-7;0;Globalstar
12.62269137;5.02E-5;52.0032;196.8984;75.6256;284.4666;0.00020477;-6.7E-7;0;Globalstar
12.62269164;5.0E-5;52.0031;195.4521;75.6154;284.4768;0.00021261;-6.6E-7;0;Globalstar
12.62269186;5.0E-5;52.0031;194.0058;75.1834;284.9088;0.0002117;-6.6E-7;0;Globalstar
12.62269195;5.01E-5;52.003;191.5954;75.2141;284.8782;0.00017654;-7.2E-7;0;Globalstar
12.62269196;5.01E-5;52.003;191.3543;74.9902;285.102;0.00017229;-7.3E-7;0;Globalstar
12.6226921;5.0E-5;52.003;190.8722;74.5864;285.5058;0.00016514;-7.4E-7;0;Globalstar
12.62269235;5.02E-5;52.0029;187.9797;74.1691;285.9231;0.00011824;-8.3E-7;0;Globalstar
12.62269241;5.03E-5;52.0028;185.3282;73.8726;286.2196;6.5398E-5;-9.2E-7;0;Globalstar
